start=new Date('2022-01-12T00:00:00.000Z').valueOf();
sats=[{"GP_ID":"193694718","ARG_OF_PERICENTER":"32.2427","MEAN_ELEMENT_THEORY":"SGP4","INCLINATION":"53.2157","ECCENTRICITY":"0.00020280","REF_FRAME":"TEME","COUNTRY_CODE":"US","MEAN_MOTION_DOT":"-0.00041177","PERIAPSIS":"443.310","OBJECT_NAME":"STARLINK-3225","TIME_SYSTEM":"UTC","SEMIMAJOR_AXIS":"6822.828","RA_OF_ASC_NODE":"128.9247","APOAPSIS":"446.077","MEAN_MOTION":"15.40480101","FILE":"3269987","OBJECT_TYPE":"PAYLOAD","OBJECT_ID":"2021-115P","REV_AT_EPOCH":"363","NORAD_CAT_ID":"49737","EPHEMERIS_TYPE":"0","PERIOD":"93.477","TLE_LINE1":"1 49737U 21115P   22011.91667824 -.00041177  00000-0 -99618-3 0  9997","RCS_SIZE":"LARGE","DECAY_DATE":null,"MEAN_MOTION_DDOT":"0.0000000000000","TLE_LINE2":"2 49737  53.2157 128.9247 0002028  32.2427 335.6197 15.40480101  3630","BSTAR":"-0.00099618000000","LAUNCH_DATE":"2021-12-02","EPOCH":"2022-01-11T22:00:00.999936","SITE":"AFETR","CENTER_NAME":"EARTH","MEAN_ANOMALY":"335.6197","ELEMENT_SET_NO":"999","CLASSIFICATION_TYPE":"U"},{"MEAN_MOTION_DOT":"-0.00042218","COUNTRY_CODE":"US","REF_FRAME":"TEME","ECCENTRICITY":"0.00022690","INCLINATION":"53.2150","ARG_OF_PERICENTER":"27.1614","MEAN_ELEMENT_THEORY":"SGP4","GP_ID":"193694975","APOAPSIS":"446.222","RA_OF_ASC_NODE":"128.9284","MEAN_MOTION":"15.40486721","SEMIMAJOR_AXIS":"6822.809","TIME_SYSTEM":"UTC","PERIAPSIS":"443.126","OBJECT_NAME":"STARLINK-3143","TLE_LINE1":"1 49738U 21115Q   22011.91667824 -.00042218  00000-0 -10215-2 0  9990","RCS_SIZE":"LARGE","DECAY_DATE":null,"MEAN_MOTION_DDOT":"0.0000000000000","PERIOD":"93.477","REV_AT_EPOCH":"363","NORAD_CAT_ID":"49738","EPHEMERIS_TYPE":"0","OBJECT_TYPE":"PAYLOAD","OBJECT_ID":"2021-115Q","FILE":"3269987","MEAN_ANOMALY":"337.5389","CLASSIFICATION_TYPE":"U","ELEMENT_SET_NO":"999","CENTER_NAME":"EARTH","SITE":"AFETR","EPOCH":"2022-01-11T22:00:00.999936","LAUNCH_DATE":"2021-12-02","TLE_LINE2":"2 49738  53.2150 128.9284 0002269  27.1614 337.5389 15.40486721  3631","BSTAR":"-0.00102150000000"},{"MEAN_MOTION":"15.08861438","APOAPSIS":"540.999","RA_OF_ASC_NODE":"132.8084","OBJECT_NAME":"STARLINK-3155","PERIAPSIS":"538.361","TIME_SYSTEM":"UTC","SEMIMAJOR_AXIS":"6917.815","ECCENTRICITY":"0.00019070","REF_FRAME":"TEME","MEAN_MOTION_DOT":"-0.00062072","COUNTRY_CODE":"US","GP_ID":"193667758","ARG_OF_PERICENTER":"38.7952","MEAN_ELEMENT_THEORY":"SGP4","INCLINATION":"53.1940","SITE":"AFETR","CENTER_NAME":"EARTH","MEAN_ANOMALY":"48.1548","ELEMENT_SET_NO":"999","CLASSIFICATION_TYPE":"U","TLE_LINE2":"2 49739  53.1940 132.8084 0001907  38.7952  48.1548 15.08861438  7363","BSTAR":"-0.00391340000000","LAUNCH_DATE":"2021-12-02","EPOCH":"2022-01-11T22:00:00.999936","NORAD_CAT_ID":"49739","REV_AT_EPOCH":"736","EPHEMERIS_TYPE":"0","PERIOD":"95.436","RCS_SIZE":"LARGE","TLE_LINE1":"1 49739U 21115R   22011.91667824 -.00062072  00000-0 -39134-2 0  9992","MEAN_MOTION_DDOT":"0.0000000000000","DECAY_DATE":null,"FILE":"3269841","OBJECT_TYPE":"PAYLOAD","OBJECT_ID":"2021-115R"},{"EPHEMERIS_TYPE":"0","REV_AT_EPOCH":"363","NORAD_CAT_ID":"49740","PERIOD":"93.478","MEAN_MOTION_DDOT":"0.0000000000000","DECAY_DATE":null,"TLE_LINE1":"1 49740U 21115S   22011.91667824 -.00026750  00000-0 -64263-3 0  9999","RCS_SIZE":"LARGE","FILE":"3269987","OBJECT_ID":"2021-115S","OBJECT_TYPE":"PAYLOAD","CENTER_NAME":"EARTH","SITE":"AFETR","CLASSIFICATION_TYPE":"U","ELEMENT_SET_NO":"999","MEAN_ANOMALY":"338.1519","BSTAR":"-0.00064263000000","TLE_LINE2":"2 49740  53.2150 128.9345 0002319  23.4307 338.1519 15.40472062  3631","LAUNCH_DATE":"2021-12-02","EPOCH":"2022-01-11T22:00:00.999936","ECCENTRICITY":"0.00023190","REF_FRAME":"TEME","COUNTRY_CODE":"US","MEAN_MOTION_DOT":"-0.00026750","GP_ID":"193694474","MEAN_ELEMENT_THEORY":"SGP4","ARG_OF_PERICENTER":"23.4307","INCLINATION":"53.2150","RA_OF_ASC_NODE":"128.9345","APOAPSIS":"446.299","MEAN_MOTION":"15.40472062","PERIAPSIS":"443.135","OBJECT_NAME":"STARLINK-3226","TIME_SYSTEM":"UTC","SEMIMAJOR_AXIS":"6822.852"},{"PERIOD":"93.478","REV_AT_EPOCH":"742","NORAD_CAT_ID":"49741","EPHEMERIS_TYPE":"0","RCS_SIZE":"LARGE","TLE_LINE1":"1 49741U 21115T   22011.91667824  .00001485  00000-0  45911-4 0  9996","DECAY_DATE":null,"MEAN_MOTION_DDOT":"0.0000000000000","OBJECT_TYPE":"PAYLOAD","OBJECT_ID":"2021-115T","FILE":"3269844","MEAN_ANOMALY":"340.8141","ELEMENT_SET_NO":"999","CLASSIFICATION_TYPE":"U","SITE":"AFETR","CENTER_NAME":"EARTH","TLE_LINE2":"2 49741  53.2154 128.9321 0002436  22.8150 340.8141 15.40467750  7429","BSTAR":"0.00004591100000","EPOCH":"2022-01-11T22:00:00.999936","LAUNCH_DATE":"2021-12-02","REF_FRAME":"TEME","ECCENTRICITY":"0.00024360","MEAN_MOTION_DOT":"0.00001485","COUNTRY_CODE":"US","GP_ID":"193667806","INCLINATION":"53.2154","ARG_OF_PERICENTER":"22.8150","MEAN_ELEMENT_THEORY":"SGP4","RA_OF_ASC_NODE":"128.9321","APOAPSIS":"446.392","MEAN_MOTION":"15.40467750","TIME_SYSTEM":"UTC","OBJECT_NAME":"STARLINK-3244","PERIAPSIS":"443.068","SEMIMAJOR_AXIS":"6822.865"},{"PERIOD":"93.477","EPHEMERIS_TYPE":"0","REV_AT_EPOCH":"742","NORAD_CAT_ID":"49742","MEAN_MOTION_DDOT":"0.0000000000000","DECAY_DATE":null,"TLE_LINE1":"1 49742U 21115U   22011.91667824 -.00027650  00000-0 -66445-3 0  9995","RCS_SIZE":"LARGE","OBJECT_ID":"2021-115U","OBJECT_TYPE":"PAYLOAD","FILE":"3269844","CLASSIFICATION_TYPE":"U","ELEMENT_SET_NO":"999","MEAN_ANOMALY":"336.8343","SITE":"AFETR","CENTER_NAME":"EARTH","BSTAR":"-0.00066445000000","TLE_LINE2":"2 49742  53.2170 128.9404 0002540  22.5963 336.8343 15.40481070  7425","EPOCH":"2022-01-11T22:00:00.999936","LAUNCH_DATE":"2021-12-02","REF_FRAME":"TEME","ECCENTRICITY":"0.00025400","COUNTRY_CODE":"US","MEAN_MOTION_DOT":"-0.00027650","GP_ID":"193668296","INCLINATION":"53.2170","MEAN_ELEMENT_THEORY":"SGP4","ARG_OF_PERICENTER":"22.5963","RA_OF_ASC_NODE":"128.9404","APOAPSIS":"446.423","MEAN_MOTION":"15.40481070","TIME_SYSTEM":"UTC","OBJECT_NAME":"STARLINK-3202","PERIAPSIS":"442.958","SEMIMAJOR_AXIS":"6822.826"},{"SITE":"AFETR","CENTER_NAME":"EARTH","MEAN_ANOMALY":"339.4008","ELEMENT_SET_NO":"999","CLASSIFICATION_TYPE":"U","TLE_LINE2":"2 49743  53.2153 128.9334 0002420  23.2353 339.4008 15.40457565  3635","BSTAR":"0.00003536300000","LAUNCH_DATE":"2021-12-02","EPOCH":"2022-01-11T22:00:00.999936","REV_AT_EPOCH":"363","NORAD_CAT_ID":"49743","EPHEMERIS_TYPE":"0","PERIOD":"93.479","TLE_LINE1":"1 49743U 21115V   22011.91667824  .00001050  00000-0  35363-4 0  9996","RCS_SIZE":"LARGE","MEAN_MOTION_DDOT":"0.0000000000000","DECAY_DATE":null,"FILE":"3269987","OBJECT_TYPE":"PAYLOAD","OBJECT_ID":"2021-115V","RA_OF_ASC_NODE":"128.9334","APOAPSIS":"446.411","MEAN_MOTION":"15.40457565","PERIAPSIS":"443.109","OBJECT_NAME":"STARLINK-3239","TIME_SYSTEM":"UTC","SEMIMAJOR_AXIS":"6822.895","ECCENTRICITY":"0.00024200","REF_FRAME":"TEME","MEAN_MOTION_DOT":"0.00001050","COUNTRY_CODE":"US","GP_ID":"193695719","ARG_OF_PERICENTER":"23.2353","MEAN_ELEMENT_THEORY":"SGP4","INCLINATION":"53.2153"},{"RA_OF_ASC_NODE":"128.9442","APOAPSIS":"446.402","MEAN_MOTION":"15.40484419","SEMIMAJOR_AXIS":"6822.816","TIME_SYSTEM":"UTC","OBJECT_NAME":"STARLINK-3231","PERIAPSIS":"442.959","MEAN_MOTION_DOT":"-0.00046557","COUNTRY_CODE":"US","REF_FRAME":"TEME","ECCENTRICITY":"0.00025230","INCLINATION":"53.2171","MEAN_ELEMENT_THEORY":"SGP4","ARG_OF_PERICENTER":"18.8514","GP_ID":"193693975","CLASSIFICATION_TYPE":"U","ELEMENT_SET_NO":"999","MEAN_ANOMALY":"338.5222","CENTER_NAME":"EARTH","SITE":"AFETR","EPOCH":"2022-01-11T22:00:00.999936","LAUNCH_DATE":"2021-12-02","BSTAR":"-0.00112820000000","TLE_LINE2":"2 49744  53.2171 128.9442 0002523  18.8514 338.5222 15.40484419  3635","MEAN_MOTION_DDOT":"0.0000000000000","DECAY_DATE":null,"RCS_SIZE":"LARGE","TLE_LINE1":"1 49744U 21115W   22011.91667824 -.00046557  00000-0 -11282-2 0  9992","PERIOD":"93.477","EPHEMERIS_TYPE":"0","REV_AT_EPOCH":"363","NORAD_CAT_ID":"49744","OBJECT_ID":"2021-115W","OBJECT_TYPE":"PAYLOAD","FILE":"3269987"},{"MEAN_MOTION":"15.40467263","APOAPSIS":"446.466","RA_OF_ASC_NODE":"128.9376","OBJECT_NAME":"STARLINK-3241","PERIAPSIS":"442.997","TIME_SYSTEM":"UTC","SEMIMAJOR_AXIS":"6822.866","ECCENTRICITY":"0.00025420","REF_FRAME":"TEME","MEAN_MOTION_DOT":"0.00001201","COUNTRY_CODE":"US","GP_ID":"193694719","MEAN_ELEMENT_THEORY":"SGP4","ARG_OF_PERICENTER":"21.8746","INCLINATION":"53.2152","SITE":"AFETR","CENTER_NAME":"EARTH","ELEMENT_SET_NO":"999","CLASSIFICATION_TYPE":"U","MEAN_ANOMALY":"338.5953","BSTAR":"0.00003902300000","TLE_LINE2":"2 49745  53.2152 128.9376 0002542  21.8746 338.5953 15.40467263  3632","LAUNCH_DATE":"2021-12-02","EPOCH":"2022-01-11T22:00:00.999936","EPHEMERIS_TYPE":"0","REV_AT_EPOCH":"363","NORAD_CAT_ID":"49745","PERIOD":"93.478","MEAN_MOTION_DDOT":"0.0000000000000","DECAY_DATE":null,"TLE_LINE1":"1 49745U 21115X   22011.91667824  .00001201  00000-0  39023-4 0  9993","RCS_SIZE":"LARGE","FILE":"3269987","OBJECT_ID":"2021-115X","OBJECT_TYPE":"PAYLOAD"},{"SITE":"AFETR","CENTER_NAME":"EARTH","ELEMENT_SET_NO":"999","CLASSIFICATION_TYPE":"U","MEAN_ANOMALY":"329.3268","BSTAR":"-0.00061765000000","TLE_LINE2":"2 49746  53.2169 128.9505 0002359  25.9545 329.3268 15.40473693  7425","LAUNCH_DATE":"2021-12-02","EPOCH":"2022-01-11T22:00:00.999936","EPHEMERIS_TYPE":"0","NORAD_CAT_ID":"49746","REV_AT_EPOCH":"742","PERIOD":"93.478","MEAN_MOTION_DDOT":"0.0000000000000","DECAY_DATE":null,"RCS_SIZE":"LARGE","TLE_LINE1":"1 49746U 21115Y   22011.91667824 -.00025730  00000-0 -61765-3 0  9996","FILE":"3269845","OBJECT_ID":"2021-115Y","OBJECT_TYPE":"PAYLOAD","MEAN_MOTION":"15.40473693","APOAPSIS":"446.322","RA_OF_ASC_NODE":"128.9505","PERIAPSIS":"443.103","OBJECT_NAME":"STARLINK-3233","TIME_SYSTEM":"UTC","SEMIMAJOR_AXIS":"6822.847","ECCENTRICITY":"0.00023590","REF_FRAME":"TEME","MEAN_MOTION_DOT":"-0.00025730","COUNTRY_CODE":"US","GP_ID":"193668308","MEAN_ELEMENT_THEORY":"SGP4","ARG_OF_PERICENTER":"25.9545","INCLINATION":"53.2169"}];
